CCSDS_OMM_VERS = 2.0
CREATION_DATE  = 
ORIGINATOR     = 

OBJECT_NAME    = COSMOS 2058
OBJECT_ID      = 1990-010A
CENTER_NAME    = EARTH
REF_FRAME      = TEME
TIME_SYSTEM    = UTC
MEAN_ELEMENT_THEORY = SGP/SGP4

EPOCH          = 2026-03-14T09:57:46.390464
MEAN_MOTION    = 15.11367677
ECCENTRICITY   = .00086581
INCLINATION    = 82.4666
RA_OF_ASC_NODE = 42.7712
ARG_OF_PERICENTER = 328.9200
MEAN_ANOMALY   = 31.1516

EPHEMERIS_TYPE = 0
CLASSIFICATION_TYPE = U
NORAD_CAT_ID   = 20465
ELEMENT_SET_NO = 999
REV_AT_EPOCH   = 94295
BSTAR          = .2779448E-3
MEAN_MOTION_DOT = .4719E-4
MEAN_MOTION_DDOT = 0

CCSDS_OMM_VERS = 2.0
CREATION_DATE  = 
ORIGINATOR     = 

OBJECT_NAME    = SL-14 R/B
OBJECT_ID      = 1990-010B
CENTER_NAME    = EARTH
REF_FRAME      = TEME
TIME_SYSTEM    = UTC
MEAN_ELEMENT_THEORY = SGP/SGP4

EPOCH          = 2026-03-14T14:39:06.402528
MEAN_MOTION    = 14.83573891
ECCENTRICITY   = .00183549
INCLINATION    = 82.4987
RA_OF_ASC_NODE = 262.7649
ARG_OF_PERICENTER = 284.8906
MEAN_ANOMALY   = 75.0276

EPHEMERIS_TYPE = 0
CLASSIFICATION_TYPE = U
NORAD_CAT_ID   = 20466
ELEMENT_SET_NO = 999
REV_AT_EPOCH   = 92921
BSTAR          = .6235374E-4
MEAN_MOTION_DOT = .538E-5
MEAN_MOTION_DDOT = 0

CCSDS_OMM_VERS = 2.0
CREATION_DATE  = 
ORIGINATOR     = 

OBJECT_NAME    = SL-14 R/B
OBJECT_ID      = 1990-018B
CENTER_NAME    = EARTH
REF_FRAME      = TEME
TIME_SYSTEM    = UTC
MEAN_ELEMENT_THEORY = SGP/SGP4

EPOCH          = 2026-03-14T11:57:10.701792
MEAN_MOTION    = 14.82150757
ECCENTRICITY   = .00176058
INCLINATION    = 82.5211
RA_OF_ASC_NODE = 218.5951
ARG_OF_PERICENTER = 77.4954
MEAN_ANOMALY   = 282.8228

EPHEMERIS_TYPE = 0
CLASSIFICATION_TYPE = U
NORAD_CAT_ID   = 20511
ELEMENT_SET_NO = 999
REV_AT_EPOCH   = 92329
BSTAR          = .70167909E-4
MEAN_MOTION_DOT = .584E-5
MEAN_MOTION_DDOT = 0

CCSDS_OMM_VERS = 2.0
CREATION_DATE  = 
ORIGINATOR     = 

OBJECT_NAME    = HST
OBJECT_ID      = 1990-037B
CENTER_NAME    = EARTH
REF_FRAME      = TEME
TIME_SYSTEM    = UTC
MEAN_ELEMENT_THEORY = SGP/SGP4

EPOCH          = 2026-03-14T12:14:35.091168
MEAN_MOTION    = 15.29568851
ECCENTRICITY   = .0001767
INCLINATION    = 28.4725
RA_OF_ASC_NODE = 7.1142
ARG_OF_PERICENTER = 174.4342
MEAN_ANOMALY   = 185.6273

EPHEMERIS_TYPE = 0
CLASSIFICATION_TYPE = U
NORAD_CAT_ID   = 20580
ELEMENT_SET_NO = 999
REV_AT_EPOCH   = 77405
BSTAR          = .33489905E-3
MEAN_MOTION_DOT = .10115E-3
MEAN_MOTION_DDOT = 0

CCSDS_OMM_VERS = 2.0
CREATION_DATE  = 
ORIGINATOR     = 

OBJECT_NAME    = SL-16 R/B
OBJECT_ID      = 1990-046B
CENTER_NAME    = EARTH
REF_FRAME      = TEME
TIME_SYSTEM    = UTC
MEAN_ELEMENT_THEORY = SGP/SGP4

EPOCH          = 2026-03-14T13:47:53.864736
MEAN_MOTION    = 14.15011248
ECCENTRICITY   = .00161869
INCLINATION    = 70.9977
RA_OF_ASC_NODE = 287.6543
ARG_OF_PERICENTER = 293.1130
MEAN_ANOMALY   = 66.8286

EPHEMERIS_TYPE = 0
CLASSIFICATION_TYPE = U
NORAD_CAT_ID   = 20625
ELEMENT_SET_NO = 999
REV_AT_EPOCH   = 84908
BSTAR          = -.9258078E-5
MEAN_MOTION_DOT = -.66E-6
MEAN_MOTION_DDOT = 0

CCSDS_OMM_VERS = 2.0
CREATION_DATE  = 
ORIGINATOR     = 

OBJECT_NAME    = COSMOS 2084
OBJECT_ID      = 1990-055A
CENTER_NAME    = EARTH
REF_FRAME      = TEME
TIME_SYSTEM    = UTC
MEAN_ELEMENT_THEORY = SGP/SGP4

EPOCH          = 2026-03-14T00:55:57.352800
MEAN_MOTION    = 15.05678754
ECCENTRICITY   = .00164032
INCLINATION    = 62.7915
RA_OF_ASC_NODE = 320.7451
ARG_OF_PERICENTER = 191.1191
MEAN_ANOMALY   = 168.9550

EPHEMERIS_TYPE = 0
CLASSIFICATION_TYPE = U
NORAD_CAT_ID   = 20663
ELEMENT_SET_NO = 999
REV_AT_EPOCH   = 93697
BSTAR          = .19797579E-3
MEAN_MOTION_DOT = .268E-4
MEAN_MOTION_DDOT = 0

CCSDS_OMM_VERS = 2.0
CREATION_DATE  = 
ORIGINATOR     = 

OBJECT_NAME    = SL-6 R/B(2)
OBJECT_ID      = 1990-055D
CENTER_NAME    = EARTH
REF_FRAME      = TEME
TIME_SYSTEM    = UTC
MEAN_ELEMENT_THEORY = SGP/SGP4

EPOCH          = 2026-03-14T15:01:25.613760
MEAN_MOTION    = 15.03622367
ECCENTRICITY   = .0025587
INCLINATION    = 62.7822
RA_OF_ASC_NODE = 237.0631
ARG_OF_PERICENTER = 348.2392
MEAN_ANOMALY   = 11.8106

EPHEMERIS_TYPE = 0
CLASSIFICATION_TYPE = U
NORAD_CAT_ID   = 20666
ELEMENT_SET_NO = 999
REV_AT_EPOCH   = 93893
BSTAR          = .20944525E-3
MEAN_MOTION_DOT = .2697E-4
MEAN_MOTION_DDOT = 0

CCSDS_OMM_VERS = 2.0
CREATION_DATE  = 
ORIGINATOR     = 

OBJECT_NAME    = SL-8 R/B
OBJECT_ID      = 1990-078B
CENTER_NAME    = EARTH
REF_FRAME      = TEME
TIME_SYSTEM    = UTC
MEAN_ELEMENT_THEORY = SGP/SGP4

EPOCH          = 2026-03-14T13:08:51.578016
MEAN_MOTION    = 14.89236154
ECCENTRICITY   = .03611869
INCLINATION    = 82.8997
RA_OF_ASC_NODE = 246.9403
ARG_OF_PERICENTER = 357.6587
MEAN_ANOMALY   = 2.2920

EPHEMERIS_TYPE = 0
CLASSIFICATION_TYPE = U
NORAD_CAT_ID   = 20775
ELEMENT_SET_NO = 999
REV_AT_EPOCH   = 81002
BSTAR          = .62971002E-3
MEAN_MOTION_DOT = .21352E-3
MEAN_MOTION_DDOT = 0

CCSDS_OMM_VERS = 2.0
CREATION_DATE  = 
ORIGINATOR     = 

OBJECT_NAME    = SL-8 R/B
OBJECT_ID      = 1991-006B
CENTER_NAME    = EARTH
REF_FRAME      = TEME
TIME_SYSTEM    = UTC
MEAN_ELEMENT_THEORY = SGP/SGP4

EPOCH          = 2026-03-14T13:17:01.682016
MEAN_MOTION    = 13.77494931
ECCENTRICITY   = .00227888
INCLINATION    = 82.9464
RA_OF_ASC_NODE = 166.4302
ARG_OF_PERICENTER = 25.0957
MEAN_ANOMALY   = 345.8145

EPHEMERIS_TYPE = 0
CLASSIFICATION_TYPE = U
NORAD_CAT_ID   = 21088
ELEMENT_SET_NO = 999
REV_AT_EPOCH   = 76474
BSTAR          = .53955956E-4
MEAN_MOTION_DOT = .69E-6
MEAN_MOTION_DDOT = 0

CCSDS_OMM_VERS = 2.0
CREATION_DATE  = 
ORIGINATOR     = 

OBJECT_NAME    = OKEAN-3
OBJECT_ID      = 1991-039A
CENTER_NAME    = EARTH
REF_FRAME      = TEME
TIME_SYSTEM    = UTC
MEAN_ELEMENT_THEORY = SGP/SGP4

EPOCH          = 2026-03-14T15:59:11.857344
MEAN_MOTION    = 15.04847916
ECCENTRICITY   = .00134891
INCLINATION    = 82.5202
RA_OF_ASC_NODE = 332.0231
ARG_OF_PERICENTER = 318.7791
MEAN_ANOMALY   = 41.2416

EPHEMERIS_TYPE = 0
CLASSIFICATION_TYPE = U
NORAD_CAT_ID   = 21397
ELEMENT_SET_NO = 999
REV_AT_EPOCH   = 86578
BSTAR          = .29890067E-3
MEAN_MOTION_DOT = .4258E-4
MEAN_MOTION_DDOT = 0

CCSDS_OMM_VERS = 2.0
CREATION_DATE  = 
ORIGINATOR     = 

OBJECT_NAME    = COSMOS 2151
OBJECT_ID      = 1991-042A
CENTER_NAME    = EARTH
REF_FRAME      = TEME
TIME_SYSTEM    = UTC
MEAN_ELEMENT_THEORY = SGP/SGP4

EPOCH          = 2026-03-14T14:51:55.292544
MEAN_MOTION    = 15.00127307
ECCENTRICITY   = .00137214
INCLINATION    = 82.4929
RA_OF_ASC_NODE = 78.9192
ARG_OF_PERICENTER = 48.5683
MEAN_ANOMALY   = 311.6717

EPHEMERIS_TYPE = 0
CLASSIFICATION_TYPE = U
NORAD_CAT_ID   = 21422
ELEMENT_SET_NO = 999
REV_AT_EPOCH   = 86393
BSTAR          = .23606744E-3
MEAN_MOTION_DOT = .2976E-4
MEAN_MOTION_DDOT = 0

CCSDS_OMM_VERS = 2.0
CREATION_DATE  = 
ORIGINATOR     = 

OBJECT_NAME    = SL-14 R/B
OBJECT_ID      = 1991-042B
CENTER_NAME    = EARTH
REF_FRAME      = TEME
TIME_SYSTEM    = UTC
MEAN_ELEMENT_THEORY = SGP/SGP4

EPOCH          = 2026-03-14T11:37:44.262912
MEAN_MOTION    = 14.81835276
ECCENTRICITY   = .00160547
INCLINATION    = 82.4933
RA_OF_ASC_NODE = 215.6861
ARG_OF_PERICENTER = 221.7557
MEAN_ANOMALY   = 138.2433

EPHEMERIS_TYPE = 0
CLASSIFICATION_TYPE = U
NORAD_CAT_ID   = 21423
ELEMENT_SET_NO = 999
REV_AT_EPOCH   = 85378
BSTAR          = .7005012E-4
MEAN_MOTION_DOT = .578E-5
MEAN_MOTION_DDOT = 0

